{"type": "FeatureCollection", "features": [ {"type": "Feature", "properties": {"norad_id": 34784, "name": "COSMOS 2251 DEB", "group": "cosmos-2251-debris", "lat": 37.66550257320548, "lon": -18.961680836689798, "alt_km": 692.7033764617627, "timestamp": "2025-12-10T16:57:12.034058+00:00", "meta": {"OBJECT_NAME": "COSMOS 2251 DEB", "OBJECT_ID": "1993-036AAM", "EPOCH": "2025-12-10T08:33:14.986080", "MEAN_MOTION": 14.60761041, "ECCENTRICITY": 0.0049485, "INCLINATION": 74.0077, "RA_OF_ASC_NODE": 328.9177, "ARG_OF_PERICENTER": 138.9494, "MEAN_ANOMALY": 221.5413, "EPHEMERIS_TYPE": 0, "CLASSIFICATION_TYPE": "U", "NORAD_CAT_ID": 34784, "ELEMENT_SET_NO": 999, "REV_AT_EPOCH": 88500, "BSTAR": 0.00070133, "MEAN_MOTION_DOT": 3.453e-05, "MEAN_MOTION_DDOT": 0}, "tle": {"line1": "1 34784U 93036AAM 25344.35642345  .00003453  00000+0  70133-3 0  9998", "line2": "2 34784  74.0077 328.9177 0049485 138.9494 221.5413 14.60761041885007"}}, "geometry": {"type": "Point", "coordinates": [-18.961680836689798, 37.66550257320548]}}, {"type": "Feature", "properties": {"norad_id": 34790, "name": "COSMOS 2251 DEB", "group": "cosmos-2251-debris", "lat": 65.83772813380236, "lon": -73.04289857841921, "alt_km": 841.029420003746, "timestamp": "2025-12-10T16:57:12.034068+00:00", "meta": {"OBJECT_NAME": "COSMOS 2251 DEB", "OBJECT_ID": "1993-036AAT", "EPOCH": "2025-12-10T10:26:36.369888", "MEAN_MOTION": 14.24618464, "ECCENTRICITY": 0.0100594, "INCLINATION": 74.0542, "RA_OF_ASC_NODE": 247.8553, "ARG_OF_PERICENTER": 309.9809, "MEAN_ANOMALY": 170.1192, "EPHEMERIS_TYPE": 0, "CLASSIFICATION_TYPE": "U", "NORAD_CAT_ID": 34790, "ELEMENT_SET_NO": 999, "REV_AT_EPOCH": 86540, "BSTAR": 0.0011544, "MEAN_MOTION_DOT": 2.802e-05, "MEAN_MOTION_DDOT": 0}, "tle": {"line1": "1 34790U 93036AAT 25344.43514317  .00002802  00000+0  11544-2 0  9998", "line2": "2 34790  74.0542 247.8553 0100594 309.9809 170.1192 14.24618464865402"}}, "geometry": {"type": "Point", "coordinates": [-73.04289857841921, 65.83772813380236]}}, {"type": "Feature", "properties": {"norad_id": 34792, "name": "COSMOS 2251 DEB", "group": "cosmos-2251-debris", "lat": 28.85636285727473, "lon": -15.517733340947874, "alt_km": 708.7331258275017, "timestamp": "2025-12-10T16:57:12.034078+00:00", "meta": {"OBJECT_NAME": "COSMOS 2251 DEB", "OBJECT_ID": "1993-036AAV", "EPOCH": "2025-12-09T12:22:02.661312", "MEAN_MOTION": 14.55910931, "ECCENTRICITY": 0.00125292, "INCLINATION": 74.0177, "RA_OF_ASC_NODE": 175.8284, "ARG_OF_PERICENTER": 269.6711, "MEAN_ANOMALY": 119.962, "EPHEMERIS_TYPE": 0, "CLASSIFICATION_TYPE": "U", "NORAD_CAT_ID": 34792, "ELEMENT_SET_NO": 999, "REV_AT_EPOCH": 87603, "BSTAR": 0.0013597617, "MEAN_MOTION_DOT": 5.954e-05, "MEAN_MOTION_DDOT": 0}, "tle": {"line1": "1 34792U 93036AAV 25343.51530858  .00005954  00000+0  13598-2 0  9998", "line2": "2 34792  74.0177 175.8284 0012529 269.6711 119.9620 14.55910931876039"}}, "geometry": {"type": "Point", "coordinates": [-15.517733340947874, 28.85636285727473]}}, {"type": "Feature", "properties": {"norad_id": 34793, "name": "COSMOS 2251 DEB", "group": "cosmos-2251-debris", "lat": 51.96392305898949, "lon": -84.36393642567734, "alt_km": 722.1645353828762, "timestamp": "2025-12-10T16:57:12.034089+00:00", "meta": {"OBJECT_NAME": "COSMOS 2251 DEB", "OBJECT_ID": "1993-036AAW", "EPOCH": "2025-12-10T12:31:31.027296", "MEAN_MOTION": 14.38638927, "ECCENTRICITY": 0.0050205, "INCLINATION": 74.0029, "RA_OF_ASC_NODE": 254.464, "ARG_OF_PERICENTER": 49.1655, "MEAN_ANOMALY": 130.6842, "EPHEMERIS_TYPE": 0, "CLASSIFICATION_TYPE": "U", "NORAD_CAT_ID": 34793, "ELEMENT_SET_NO": 999, "REV_AT_EPOCH": 87298, "BSTAR": 0.00042088, "MEAN_MOTION_DOT": 1.282e-05, "MEAN_MOTION_DDOT": 0}, "tle": {"line1": "1 34793U 93036AAW 25344.52188689  .00001282  00000+0  42088-3 0  9999", "line2": "2 34793  74.0029 254.4640 0050205  49.1655 130.6842 14.38638927872986"}}, "geometry": {"type": "Point", "coordinates": [-84.36393642567734, 51.96392305898949]}}, {"type": "Feature", "properties": {"norad_id": 34796, "name": "COSMOS 2251 DEB", "group": "cosmos-2251-debris", "lat": 69.3015907012519, "lon": -90.5594696220765, "alt_km": 751.3221978862675, "timestamp": "2025-12-10T16:57:12.034099+00:00", "meta": {"OBJECT_NAME": "COSMOS 2251 DEB", "OBJECT_ID": "1993-036AAZ", "EPOCH": "2025-12-10T02:22:55.926624", "MEAN_MOTION": 14.48668134, "ECCENTRICITY": 0.01002111, "INCLINATION": 74.0294, "RA_OF_ASC_NODE": 221.2955, "ARG_OF_PERICENTER": 323.9503, "MEAN_ANOMALY": 186.6627, "EPHEMERIS_TYPE": 0, "CLASSIFICATION_TYPE": "U", "NORAD_CAT_ID": 34796, "ELEMENT_SET_NO": 999, "REV_AT_EPOCH": 87989, "BSTAR": 0.00086649883, "MEAN_MOTION_DOT": 3.449e-05, "MEAN_MOTION_DDOT": 0}, "tle": {"line1": "1 34796U 93036AAZ 25344.09925841  .00003449  00000+0  86650-3 0  9993", "line2": "2 34796  74.0294 221.2955 0100211 323.9503 186.6627 14.48668134879895"}}, "geometry": {"type": "Point", "coordinates": [-90.5594696220765, 69.3015907012519]}}, {"type": "Feature", "properties": {"norad_id": 34797, "name": "COSMOS 2251 DEB", "group": "cosmos-2251-debris", "lat": -58.19875829904264, "lon": -48.61746082256935, "alt_km": 709.4555058720644, "timestamp": "2025-12-10T16:57:12.034109+00:00", "meta": {"OBJECT_NAME": "COSMOS 2251 DEB", "OBJECT_ID": "1993-036ABA", "EPOCH": "2025-12-08T02:15:30.483648", "MEAN_MOTION": 14.42690241, "ECCENTRICITY": 0.00721111, "INCLINATION": 73.9779, "RA_OF_ASC_NODE": 108.638, "ARG_OF_PERICENTER": 222.8023, "MEAN_ANOMALY": 136.7506, "EPHEMERIS_TYPE": 0, "CLASSIFICATION_TYPE": "U", "NORAD_CAT_ID": 34797, "ELEMENT_SET_NO": 999, "REV_AT_EPOCH": 87348, "BSTAR": 0.0033221371, "MEAN_MOTION_DOT": 0.00011397, "MEAN_MOTION_DDOT": 0}, "tle": {"line1": "1 34797U 93036ABA 25342.09410282  .00011397  00000+0  33221-2 0  9996", "line2": "2 34797  73.9779 108.6380 0072111 222.8023 136.7506 14.42690241873482"}}, "geometry": {"type": "Point", "coordinates": [-48.61746082256935, -58.19875829904264]}}, {"type": "Feature", "properties": {"norad_id": 34814, "name": "COSMOS 2251 DEB", "group": "cosmos-2251-debris", "lat": -73.84547178149235, "lon": -124.96694526492468, "alt_km": 749.6108741262469, "timestamp": "2025-12-10T16:57:12.034119+00:00", "meta": {"OBJECT_NAME": "COSMOS 2251 DEB", "OBJECT_ID": "1993-036ABD", "EPOCH": "2025-12-10T09:43:34.915008", "MEAN_MOTION": 14.36877129, "ECCENTRICITY": 0.0056365, "INCLINATION": 73.896, "RA_OF_ASC_NODE": 329.7665, "ARG_OF_PERICENTER": 219.7218, "MEAN_ANOMALY": 291.6009, "EPHEMERIS_TYPE": 0, "CLASSIFICATION_TYPE": "U", "NORAD_CAT_ID": 34814, "ELEMENT_SET_NO": 999, "REV_AT_EPOCH": 87299, "BSTAR": 0.0011962, "MEAN_MOTION_DOT": 3.577e-05, "MEAN_MOTION_DDOT": 0}, "tle": {"line1": "1 34814U 93036ABD 25344.40526522  .00003577  00000+0  11962-2 0  9997", "line2": "2 34814  73.8960 329.7665 0056365 219.7218 291.6009 14.36877129872998"}}, "geometry": {"type": "Point", "coordinates": [-124.96694526492468, -73.84547178149235]}}, {"type": "Feature", "properties": {"norad_id": 34815, "name": "COSMOS 2251 DEB", "group": "cosmos-2251-debris", "lat": 55.31652268770833, "lon": 41.374691500443674, "alt_km": 669.1965378884461, "timestamp": "2025-12-10T16:57:12.034129+00:00", "meta": {"OBJECT_NAME": "COSMOS 2251 DEB", "OBJECT_ID": "1993-036ABE", "EPOCH": "2025-12-09T11:10:12.352800", "MEAN_MOTION": 14.78241415, "ECCENTRICITY": 0.00588661, "INCLINATION": 74.0452, "RA_OF_ASC_NODE": 248.2294, "ARG_OF_PERICENTER": 318.1055, "MEAN_ANOMALY": 41.5622, "EPHEMERIS_TYPE": 0, "CLASSIFICATION_TYPE": "U", "NORAD_CAT_ID": 34815, "ELEMENT_SET_NO": 999, "REV_AT_EPOCH": 88579, "BSTAR": 0.0013749046, "MEAN_MOTION_DOT": 0.00010252, "MEAN_MOTION_DDOT": 0}, "tle": {"line1": "1 34815U 93036ABE 25343.46542075  .00010252  00000+0  13749-2 0  9997", "line2": "2 34815  74.0452 248.2294 0058866 318.1055  41.5622 14.78241415885796"}}, "geometry": {"type": "Point", "coordinates": [41.374691500443674, 55.31652268770833]}}, {"type": "Feature", "properties": {"norad_id": 34816, "name": "COSMOS 2251 DEB", "group": "cosmos-2251-debris", "lat": -48.657210287705425, "lon": -14.377836710211469, "alt_km": 786.7171090508564, "timestamp": "2025-12-10T16:57:12.034139+00:00", "meta": {"OBJECT_NAME": "COSMOS 2251 DEB", "OBJECT_ID": "1993-036ABF", "EPOCH": "2025-12-06T22:26:27.336768", "MEAN_MOTION": 13.5829822, "ECCENTRICITY": 0.03736298, "INCLINATION": 73.886, "RA_OF_ASC_NODE": 152.5929, "ARG_OF_PERICENTER": 218.068, "MEAN_ANOMALY": 297.1187, "EPHEMERIS_TYPE": 0, "CLASSIFICATION_TYPE": "U", "NORAD_CAT_ID": 34816, "ELEMENT_SET_NO": 999, "REV_AT_EPOCH": 82704, "BSTAR": 0.0017880706, "MEAN_MOTION_DOT": 2.026e-05, "MEAN_MOTION_DDOT": 0}, "tle": {"line1": "1 34816U 93036ABF 25340.93503862  .00002026  00000+0  17881-2 0  9999", "line2": "2 34816  73.8860 152.5929 0373629 218.0680 297.1187 13.58298220827040"}}, "geometry": {"type": "Point", "coordinates": [-14.377836710211469, -48.657210287705425]}}, {"type": "Feature", "properties": {"norad_id": 34818, "name": "COSMOS 2251 DEB", "group": "cosmos-2251-debris", "lat": -20.015547919482092, "lon": -65.30768693229545, "alt_km": 759.7214873754147, "timestamp": "2025-12-10T16:57:12.034150+00:00", "meta": {"OBJECT_NAME": "COSMOS 2251 DEB", "OBJECT_ID": "1993-036ABH", "EPOCH": "2025-12-10T07:44:16.027008", "MEAN_MOTION": 14.36962335, "ECCENTRICITY": 0.0024056, "INCLINATION": 74.0356, "RA_OF_ASC_NODE": 301.3836, "ARG_OF_PERICENTER": 17.6421, "MEAN_ANOMALY": 136.2189, "EPHEMERIS_TYPE": 0, "CLASSIFICATION_TYPE": "U", "NORAD_CAT_ID": 34818, "ELEMENT_SET_NO": 999, "REV_AT_EPOCH": 87335, "BSTAR": 0.0003859, "MEAN_MOTION_DOT": 1.121e-05, "MEAN_MOTION_DDOT": 0}, "tle": {"line1": "1 34818U 93036ABH 25344.32240772  .00001121  00000+0  38590-3 0  9992", "line2": "2 34818  74.0356 301.3836 0024056  17.6421 136.2189 14.36962335873351"}}, "geometry": {"type": "Point", "coordinates": [-65.30768693229545, -20.015547919482092]}}]}